{
  "type": "FeatureCollection",
  "features": [
    {
      "type": "Feature",
      "properties": {
        "norad_id": 58647,
        "name": "TIANMU-1 13",
        "group": "weather",
        "lat": 2.8593873942989507,
        "lon": -158.33008057796425,
        "alt_km": 490.0737860525578,
        "timestamp": "2025-12-27T22:26:48.258237+00:00",
        "meta_object_name": "TIANMU-1 13",
        "meta_object_id": "2023-205C",
        "meta_epoch": "2025-12-27T12:13:19.739136",
        "meta_mean_motion": 15.24711477,
        "meta_eccentricity": 0.0006872,
        "meta_inclination": 97.3618,
        "meta_ra_of_asc_node": 20.8812,
        "meta_arg_of_pericenter": 203.573,
        "meta_mean_anomaly": 156.5194,
        "meta_ephemeris_type": 0,
        "meta_classification_type": "U",
        "meta_norad_cat_id": 58647,
        "meta_element_set_no": 999,
        "meta_rev_at_epoch": 11132,
        "meta_bstar": 0.00027583,
        "meta_mean_motion_dot": 6.757e-05,
        "meta_mean_motion_ddot": 0,
        "tle_line1": "1 58647U 23205C   25361.50925624  .00006757  00000+0  27583-3 0  9994",
        "tle_line2": "2 58647  97.3618  20.8812 0006872 203.5730 156.5194 15.24711477111328"
      },
      "geometry": {
        "type": "Point",
        "coordinates": [
          -158.33008057796425,
          2.8593873942989507
        ]
      }
    },
    {
      "type": "Feature",
      "properties": {
        "norad_id": 58648,
        "name": "TIANMU-1 14",
        "group": "weather",
        "lat": -82.13714619486841,
        "lon": 131.35375787877084,
        "alt_km": 496.38519994189846,
        "timestamp": "2025-12-27T22:26:48.258249+00:00",
        "meta_object_name": "TIANMU-1 14",
        "meta_object_id": "2023-205D",
        "meta_epoch": "2025-12-27T13:24:10.052352",
        "meta_mean_motion": 15.24694737,
        "meta_eccentricity": 0.0007562,
        "meta_inclination": 97.355,
        "meta_ra_of_asc_node": 20.2646,
        "meta_arg_of_pericenter": 209.4616,
        "meta_mean_anomaly": 150.6197,
        "meta_ephemeris_type": 0,
        "meta_classification_type": "U",
        "meta_norad_cat_id": 58648,
        "meta_element_set_no": 999,
        "meta_rev_at_epoch": 11133,
        "meta_bstar": 0.00028832,
        "meta_mean_motion_dot": 7.064e-05,
        "meta_mean_motion_ddot": 0,
        "tle_line1": "1 58648U 23205D   25361.55844968  .00007064  00000+0  28832-3 0  9991",
        "tle_line2": "2 58648  97.3550  20.2646 0007562 209.4616 150.6197 15.24694737111336"
      },
      "geometry": {
        "type": "Point",
        "coordinates": [
          131.35375787877084,
          -82.13714619486841
        ]
      }
    },
    {
      "type": "Feature",
      "properties": {
        "norad_id": 58660,
        "name": "TIANMU-1 19",
        "group": "weather",
        "lat": -12.933755089879128,
        "lon": 114.66395028304737,
        "alt_km": 489.14210463427116,
        "timestamp": "2025-12-27T22:26:48.258259+00:00",
        "meta_object_name": "TIANMU-1 19",
        "meta_object_id": "2023-208A",
        "meta_epoch": "2025-12-27T13:04:27.809184",
        "meta_mean_motion": 15.28125464,
        "meta_eccentricity": 0.0004974,
        "meta_inclination": 97.4383,
        "meta_ra_of_asc_node": 112.5548,
        "meta_arg_of_pericenter": 191.6541,
        "meta_mean_anomaly": 168.4584,
        "meta_ephemeris_type": 0,
        "meta_classification_type": "U",
        "meta_norad_cat_id": 58660,
        "meta_element_set_no": 999,
        "meta_rev_at_epoch": 11108,
        "meta_bstar": 0.00040029,
        "meta_mean_motion_dot": 0.0001091,
        "meta_mean_motion_ddot": 0,
        "tle_line1": "1 58660U 23208A   25361.54476631  .00010910  00000+0  40029-3 0  9991",
        "tle_line2": "2 58660  97.4383 112.5548 0004974 191.6541 168.4584 15.28125464111083"
      },
      "geometry": {
        "type": "Point",
        "coordinates": [
          114.66395028304737,
          -12.933755089879128
        ]
      }
    },
    {
      "type": "Feature",
      "properties": {
        "norad_id": 58661,
        "name": "TIANMU-1 20",
        "group": "weather",
        "lat": 53.05388076038052,
        "lon": -56.59734904905144,
        "alt_km": 471.89868745877175,
        "timestamp": "2025-12-27T22:26:48.258269+00:00",
        "meta_object_name": "TIANMU-1 20",
        "meta_object_id": "2023-208B",
        "meta_epoch": "2025-12-27T12:28:27.001344",
        "meta_mean_motion": 15.29316027,
        "meta_eccentricity": 0.0006978,
        "meta_inclination": 97.4321,
        "meta_ra_of_asc_node": 112.992,
        "meta_arg_of_pericenter": 205.6133,
        "meta_mean_anomaly": 154.4763,
        "meta_ephemeris_type": 0,
        "meta_classification_type": "U",
        "meta_norad_cat_id": 58661,
        "meta_element_set_no": 999,
        "meta_rev_at_epoch": 11115,
        "meta_bstar": 0.00039745,
        "meta_mean_motion_dot": 0.00011239,
        "meta_mean_motion_ddot": 0,
        "tle_line1": "1 58661U 23208B   25361.51975696  .00011239  00000+0  39745-3 0  9992",
        "tle_line2": "2 58661  97.4321 112.9920 0006978 205.6133 154.4763 15.29316027111153"
      },
      "geometry": {
        "type": "Point",
        "coordinates": [
          -56.59734904905144,
          53.05388076038052
        ]
      }
    },
    {
      "type": "Feature",
      "properties": {
        "norad_id": 58662,
        "name": "TIANMU-1 21",
        "group": "weather",
        "lat": -82.54429964095787,
        "lon": -151.14580309023665,
        "alt_km": 476.0865426892924,
        "timestamp": "2025-12-27T22:26:48.258279+00:00",
        "meta_object_name": "TIANMU-1 21",
        "meta_object_id": "2023-208C",
        "meta_epoch": "2025-12-27T13:26:06.345888",
        "meta_mean_motion": 15.3187618,
        "meta_eccentricity": 0.0006605,
        "meta_inclination": 97.437,
        "meta_ra_of_asc_node": 115.0072,
        "meta_arg_of_pericenter": 199.7958,
        "meta_mean_anomaly": 160.3028,
        "meta_ephemeris_type": 0,
        "meta_classification_type": "U",
        "meta_norad_cat_id": 58662,
        "meta_element_set_no": 999,
        "meta_rev_at_epoch": 11126,
        "meta_bstar": 0.0004142,
        "meta_mean_motion_dot": 0.00012685,
        "meta_mean_motion_ddot": 0,
        "tle_line1": "1 58662U 23208C   25361.55979567  .00012685  00000+0  41420-3 0  9997",
        "tle_line2": "2 58662  97.4370 115.0072 0006605 199.7958 160.3028 15.31876180111261"
      },
      "geometry": {
        "type": "Point",
        "coordinates": [
          -151.14580309023665,
          -82.54429964095787
        ]
      }
    },
    {
      "type": "Feature",
      "properties": {
        "norad_id": 58663,
        "name": "TIANMU-1 22",
        "group": "weather",
        "lat": -25.544541767674808,
        "lon": 116.57622146442267,
        "alt_km": 489.0678973449676,
        "timestamp": "2025-12-27T22:26:48.258289+00:00",
        "meta_object_name": "TIANMU-1 22",
        "meta_object_id": "2023-208D",
        "meta_epoch": "2025-12-27T13:07:42.165984",
        "meta_mean_motion": 15.27859911,
        "meta_eccentricity": 0.000314,
        "meta_inclination": 97.4377,
        "meta_ra_of_asc_node": 112.6092,
        "meta_arg_of_pericenter": 213.4482,
        "meta_mean_anomaly": 146.6559,
        "meta_ephemeris_type": 0,
        "meta_classification_type": "U",
        "meta_norad_cat_id": 58663,
        "meta_element_set_no": 999,
        "meta_rev_at_epoch": 11109,
        "meta_bstar": 0.00037376,
        "meta_mean_motion_dot": 0.00010097,
        "meta_mean_motion_ddot": 0,
        "tle_line1": "1 58663U 23208D   25361.54701581  .00010097  00000+0  37376-3 0  9996",
        "tle_line2": "2 58663  97.4377 112.6092 0003140 213.4482 146.6559 15.27859911111096"
      },
      "geometry": {
        "type": "Point",
        "coordinates": [
          116.57622146442267,
          -25.544541767674808
        ]
      }
    },
    {
      "type": "Feature",
      "properties": {
        "norad_id": 58700,
        "name": "TIANMU-1 15",
        "group": "weather",
        "lat": -70.62635119197073,
        "lon": -154.76403874104219,
        "alt_km": 497.25573306782644,
        "timestamp": "2025-12-27T22:26:48.258298+00:00",
        "meta_object_name": "TIANMU-1 15",
        "meta_object_id": "2024-004A",
        "meta_epoch": "2025-12-27T13:18:41.080032",
        "meta_mean_motion": 15.24608534,
        "meta_eccentricity": 0.0006168,
        "meta_inclination": 97.4631,
        "meta_ra_of_asc_node": 182.9687,
        "meta_arg_of_pericenter": 227.356,
        "meta_mean_anomaly": 132.7158,
        "meta_ephemeris_type": 0,
        "meta_classification_type": "U",
        "meta_norad_cat_id": 58700,
        "meta_element_set_no": 999,
        "meta_rev_at_epoch": 10960,
        "meta_bstar": 0.00031135,
        "meta_mean_motion_dot": 7.612e-05,
        "meta_mean_motion_ddot": 0,
        "tle_line1": "1 58700U 24004A   25361.55464213  .00007612  00000+0  31135-3 0  9998",
        "tle_line2": "2 58700  97.4631 182.9687 0006168 227.3560 132.7158 15.24608534109600"
      },
      "geometry": {
        "type": "Point",
        "coordinates": [
          -154.76403874104219,
          -70.62635119197073
        ]
      }
    }
  ]
}